[{"OBJECT_NAME":"STARLINK-1626","OBJECT_ID":"2020-057BC","EPOCH":"2026-03-09T21:10:18.495264","MEAN_MOTION":15.54470029,"ECCENTRICITY":0.00074735,"INCLINATION":53.0494,"RA_OF_ASC_NODE":293.3535,"ARG_OF_PERICENTER":135.7142,"MEAN_ANOMALY":224.4467,"EPHEMERIS_TYPE":0,"CLASSIFICATION_TYPE":"U","NORAD_CAT_ID":46167,"ELEMENT_SET_NO":999,"REV_AT_EPOCH":30641,"BSTAR":0.001933485,"MEAN_MOTION_DOT":0.00131235,"MEAN_MOTION_DDOT":0},{"OBJECT_NAME":"JILIN-1 GAOFEN 3F","OBJECT_ID":"2020-065E","EPOCH":"2026-03-09T21:58:01.789536","MEAN_MOTION":15.52225222,"ECCENTRICITY":0.0016506,"INCLINATION":97.2386,"RA_OF_ASC_NODE":117.6066,"ARG_OF_PERICENTER":153.1702,"MEAN_ANOMALY":207.0408,"EPHEMERIS_TYPE":0,"CLASSIFICATION_TYPE":"U","NORAD_CAT_ID":46458,"ELEMENT_SET_NO":999,"REV_AT_EPOCH":30426,"BSTAR":0.00071721862,"MEAN_MOTION_DOT":0.00043818,"MEAN_MOTION_DDOT":0}]
